NORAD_CAT_ID,OBJECT_NAME,OBJECT_TYPE,EPOCH,MEAN_MOTION,ECCENTRICITY,INCLINATION,RA_OF_ASC_NODE,ARG_OF_PERICENTER,MEAN_ANOMALY,BSTAR,MEAN_MOTION_DOT,MEAN_MOTION_DDOT,TLE_LINE0,TLE_LINE1,TLE_LINE2,SEMIMAJOR_AXIS,PERIOD,APOGEE,PERIGEE,DECAYED
55392.0,STARLINK-5085,PAYLOAD,2024-02-05 12:13:11,14.98327673,0.0003015,70.0009,168.623,270.6378,89.4435,5.2457e-05,5.33e-06,0.0,0 STARLINK-5085,1 55392U 23014B   24036.50915525  .00000533  00000-0  52457-4 0  9999,2 55392  70.0009 168.6230 0003015 270.6378  89.4435 14.98327673 57296,6950.2,96.107,574.161,569.97,0.0
55392.0,STARLINK-5085,PAYLOAD,2024-02-05 15:25:27,14.98329156,0.0002947,70.0009,168.2864,268.1538,91.9284,7.1988e-05,7.66e-06,0.0,0 STARLINK-5085,1 55392U 23014B   24036.64267383  .00000766  00000-0  71988-4 0  9994,2 55392  70.0009 168.2864 0002947 268.1538  91.9284 14.98329156 58253,6950.196,96.107,574.109,570.012,0.0
55392.0,STARLINK-5085,PAYLOAD,2024-02-05 18:37:42,14.98332315,0.0003012,70.001,167.9496,270.0864,89.995,8.301e-05,8.98e-06,0.0,0 STARLINK-5085,1 55392U 23014B   24036.77619143  .00000898  00000-0  83010-4 0  9998,2 55392  70.0010 167.9496 0003012 270.0864  89.9950 14.98332315 58270,6950.186,96.107,574.144,569.957,0.0
55392.0,STARLINK-5085,PAYLOAD,2024-02-06 13:51:19,14.98328089,0.0003019,70.0013,165.9311,268.4813,91.6,2.3448e-05,1.87e-06,0.0,0 STARLINK-5085,1 55392U 23014B   24037.57731478  .00000187  00000-0  23448-4 0  9993,2 55392  70.0013 165.9311 0003019 268.4813  91.6000 14.98328089 58391,6950.199,96.107,574.162,569.966,0.0
55392.0,STARLINK-5085,PAYLOAD,2024-02-06 18:39:43,14.98336416,0.0002719,70.0016,165.4278,260.9742,99.1109,-6.0236e-06,-1.65e-06,0.0,0 STARLINK-5085,1 55392U 23014B   24037.77758956 -.00000165  00000-0 -60236-5 0  9990,2 55392  70.0016 165.4278 0002719 260.9742  99.1109 14.98336416 57480,6950.173,96.107,573.928,570.148,0.0
55392.0,STARLINK-5085,PAYLOAD,2024-02-07 12:17:12,14.98327466,0.0002591,70.0021,163.577,248.9388,111.1494,5.2527e-06,-3e-07,0.0,0 STARLINK-5085,1 55392U 23014B   24038.51195347 -.00000030  00000-0  52527-5 0  9996,2 55392  70.0021 163.5770 0002591 248.9388 111.1494 14.98327466 57591,6950.201,96.107,573.867,570.265,0.0
55392.0,STARLINK-5085,PAYLOAD,2024-02-07 18:41:45,14.98327398,0.0002553,70.002,162.9042,253.9181,106.1697,6.9153e-06,-1e-07,0.0,0 STARLINK-5085,1 55392U 23014B   24038.77899433 -.00000010  00000-0  69153-5 0  9992,2 55392  70.0020 162.9042 0002553 253.9181 106.1697 14.98327398 58572,6950.201,96.107,573.84,570.292,0.0
55392.0,STARLINK-5085,PAYLOAD,2024-02-08 13:55:22,14.98326828,0.0002721,70.002,160.8844,245.2973,114.7903,-3.4976e-05,-5.1e-06,0.0,0 STARLINK-5085,1 55392U 23014B   24039.58011625 -.00000510  00000-0 -34976-4 0  9991,2 55392  70.0020 160.8844 0002721 245.2973 114.7903 14.98326828 58694,6950.203,96.107,573.959,570.177,0.0
55392.0,STARLINK-5085,PAYLOAD,2024-02-08 17:07:38,14.9832825,0.0002692,70.002,160.5478,244.8707,115.2173,-2.131e-05,-3.47e-06,0.0,0 STARLINK-5085,1 55392U 23014B   24039.71363519 -.00000347  00000-0 -21310-4 0  9994,2 55392  70.0020 160.5478 0002692 244.8707 115.2173 14.98328250 57775,6950.198,96.107,573.934,570.192,0.0
55392.0,STARLINK-5085,PAYLOAD,2024-02-09 13:57:22,14.98331074,0.0002949,70.0008,158.3572,263.6824,96.3999,5.3655e-05,5.47e-06,0.0,0 STARLINK-5085,1 55392U 23014B   24040.58151158  .00000547  00000-0  53655-4 0  9992,2 55392  70.0008 158.3572 0002949 263.6824  96.3999 14.98331074 58847,6950.19,96.107,574.104,570.005,0.0
55392.0,STARLINK-5085,PAYLOAD,2024-02-09 17:09:38,14.98333358,0.0002878,70.0009,158.0206,262.9278,97.1554,6.5778e-05,6.92e-06,0.0,0 STARLINK-5085,1 55392U 23014B   24040.71502949  .00000692  00000-0  65778-4 0  9995,2 55392  70.0009 158.0206 0002878 262.9278  97.1554 14.98333358 57926,6950.183,96.107,574.048,570.047,0.0
55392.0,STARLINK-5085,PAYLOAD,2024-02-10 10:47:08,14.98322727,0.0002828,70.0024,156.1711,262.0357,98.0481,4.8671e-06,-3.5e-07,0.0,0 STARLINK-5085,1 55392U 23014B   24041.44939918 -.00000035  00000-0  48671-5 0  9992,2 55392  70.0024 156.1711 0002828 262.0357  98.0481 14.98322727 58037,6950.215,96.107,574.046,570.115,0.0
55392.0,STARLINK-5085,PAYLOAD,2024-02-10 13:59:24,14.9832645,0.0003004,70.0008,155.8324,265.5852,94.4964,-1.8674e-05,-3.16e-06,0.0,0 STARLINK-5085,1 55392U 23014B   24041.58291730 -.00000316  00000-0 -18674-4 0  9992,2 55392  70.0008 155.8324 0003004 265.5852  94.4964 14.98326450 58998,6950.204,96.107,574.157,569.981,0.0
55392.0,STARLINK-5085,PAYLOAD,2024-02-10 17:11:39,14.98330661,0.0002956,70.0007,155.4954,267.5991,92.483,2.9747e-05,2.62e-06,0.0,0 STARLINK-5085,1 55392U 23014B   24041.71643346  .00000262  00000-0  29747-4 0  9992,2 55392  70.0007 155.4954 0002956 267.5991  92.4830 14.98330661 58071,6950.191,96.107,574.11,570.001,0.0
55392.0,STARLINK-5085,PAYLOAD,2024-02-11 14:01:24,14.98335699,0.0002847,70.001,153.3075,262.5422,97.5414,1.5771e-05,9.5e-07,0.0,0 STARLINK-5085,1 55392U 23014B   24042.58430942  .00000095  00000-0  15771-4 0  9990,2 55392  70.0010 153.3075 0002847 262.5422  97.5414 14.98335699 59148,6950.175,96.107,574.019,570.062,0.0
55392.0,STARLINK-5085,PAYLOAD,2024-02-11 17:13:40,14.98342338,0.0002641,70.0017,152.9723,270.2355,89.8501,0.00010152,1.119e-05,0.0,0 STARLINK-5085,1 55392U 23014B   24042.71782430  .00001119  00000-0  10152-3 0  9992,2 55392  70.0017 152.9723 0002641 270.2355  89.8501 14.98342338 58220,6950.155,96.106,573.855,570.184,0.0
55392.0,STARLINK-5085,PAYLOAD,2024-02-12 12:27:17,14.98330601,0.0002759,70.0015,150.9507,261.88,98.2046,6.0864e-05,6.33e-06,0.0,0 STARLINK-5085,1 55392U 23014B   24043.51894952  .00000633  00000-0  60864-4 0  9990,2 55392  70.0015 150.9507 0002759 261.8800  98.2046 14.98330601 58348,6950.191,96.107,573.974,570.138,0.0
55392.0,STARLINK-5085,PAYLOAD,2024-02-12 14:03:25,14.98329211,0.0002694,70.0018,150.7835,258.9772,101.1084,-3.2829e-05,-4.85e-06,0.0,0 STARLINK-5085,1 55392U 23014B   24043.58571306 -.00000485  00000-0 -32829-4 0  9999,2 55392  70.0018 150.7835 0002694 258.9772 101.1084 14.98329211 59292,6950.195,96.107,573.933,570.188,0.0
55392.0,STARLINK-5085,PAYLOAD,2024-02-12 15:39:35,14.98302341,0.0002681,70.0013,150.6159,254.1717,105.9147,-0.00027821,-3.408e-05,0.0,0 STARLINK-5085,1 55392U 23014B   24043.65249648 -.00003408  00000-0 -27821-3 0  9991,2 55392  70.0013 150.6159 0002681 254.1717 105.9147 14.98302341 58362,6950.278,96.109,574.007,570.28,0.0
55392.0,STARLINK-5085,PAYLOAD,2024-02-13 10:53:11,14.98318366,0.0002384,70.0025,148.5968,263.9081,96.1807,-0.00012294,-1.559e-05,0.0,0 STARLINK-5085,1 55392U 23014B   24044.45361034 -.00001559  00000-0 -12294-3 0  9997,2 55392  70.0025 148.5968 0002384 263.9081  96.1807 14.98318366 58482,6950.229,96.108,573.751,570.437,0.0
55392.0,STARLINK-5085,PAYLOAD,2024-02-13 14:05:27,14.98320873,0.0002348,70.0019,148.2586,260.1711,99.9183,-8.5618e-05,-1.114e-05,0.0,0 STARLINK-5085,1 55392U 23014B   24044.58712816 -.00001114  00000-0 -85618-4 0  9997,2 55392  70.0019 148.2586 0002348 260.1711  99.9183 14.98320873 59448,6950.221,96.108,573.718,570.454,0.0
55392.0,STARLINK-5085,PAYLOAD,2024-02-13 15:41:35,14.9832202,0.0002086,70.0025,148.0912,251.3011,108.7922,-7.1847e-05,-9.5e-06,0.0,0 STARLINK-5085,1 55392U 23014B   24044.65388743 -.00000950  00000-0 -71847-4 0  9999,2 55392  70.0025 148.0912 0002086 251.3011 108.7922 14.98322020 59457,6950.218,96.108,573.532,570.633,0.0
55392.0,STARLINK-5085,PAYLOAD,2024-02-13 23:42:15,14.98333486,0.0002048,70.0026,147.2475,274.5775,85.515,-1.1616e-05,-2.31e-06,0.0,0 STARLINK-5085,1 55392U 23014B   24044.98768076 -.00000231  00000-0 -11616-4 0  9996,2 55392  70.0026 147.2475 0002048 274.5775  85.5150 14.98333486 58569,6950.182,96.107,573.471,570.624,0.0
55392.0,STARLINK-5085,PAYLOAD,2024-02-14 12:31:18,14.98344929,0.0002623,70.0002,145.9008,258.0465,102.04,0.00024162,2.792e-05,0.0,0 STARLINK-5085,1 55392U 23014B   24045.52174091  .00002792  00000-0  24162-3 0  9996,2 55392  70.0002 145.9008 0002623 258.0465 102.0400 14.98344929 58648,6950.147,96.106,573.835,570.189,0.0
55392.0,STARLINK-5085,PAYLOAD,2024-02-14 14:07:26,14.98346744,0.0002672,70.0002,145.7324,261.272,98.8137,0.00024755,2.863e-05,0.0,0 STARLINK-5085,1 55392U 23014B   24045.58849921  .00002863  00000-0  24755-3 0  9990,2 55392  70.0002 145.7324 0002672 261.2720  98.8137 14.98346744 59592,6950.141,96.106,573.863,570.149,0.0
55392.0,STARLINK-5085,PAYLOAD,2024-02-14 15:43:34,14.98349701,0.0002763,70.0004,145.564,263.9748,96.1096,0.00024393,2.82e-05,0.0,0 STARLINK-5085,1 55392U 23014B   24045.65525682  .00002820  00000-0  24393-3 0  9994,2 55392  70.0004 145.5640 0002763 263.9748  96.1096 14.98349701 59606,6950.132,96.106,573.917,570.077,0.0
55392.0,STARLINK-5085,PAYLOAD,2024-02-15 10:57:12,14.98328792,0.00031,69.9999,143.5439,261.8356,98.2451,4.8758e-06,-3.5e-07,0.0,0 STARLINK-5085,1 55392U 23014B   24046.45639679 -.00000035  00000-0  48758-5 0  9995,2 55392  69.9999 143.5439 0003100 261.8356  98.2451 14.98328792 58781,6950.197,96.107,574.216,569.907,0.0
55392.0,STARLINK-5085,PAYLOAD,2024-02-15 14:09:28,14.98326679,0.0003036,70.0001,143.208,262.779,97.3024,-3.0991e-06,-1.3e-06,0.0,0 STARLINK-5085,1 55392U 23014B   24046.58991859 -.00000130  00000-0 -30991-5 0  9997,2 55392  70.0001 143.2080 0003036 262.7790  97.3024 14.98326679 59742,6950.203,96.107,574.178,569.958,0.0
55392.0,STARLINK-5085,PAYLOAD,2024-02-15 17:21:44,14.98327742,0.0002951,70.0002,142.8701,262.5643,97.5181,2.6234e-05,2.2e-06,0.0,0 STARLINK-5085,1 55392U 23014B   24046.72343729  .00000220  00000-0  26234-4 0  9992,2 55392  70.0002 142.8701 0002951 262.5643  97.5181 14.98327742 59768,6950.2,96.107,574.116,570.014,0.0
55392.0,STARLINK-5085,PAYLOAD,2024-02-16 12:35:21,14.98341296,0.0002815,70.0005,140.8504,263.4862,96.5977,-0.00013737,-1.732e-05,0.0,0 STARLINK-5085,1 55392U 23014B   24047.52455014 -.00001732  00000-0 -13737-3 0  9996,2 55392  70.0005 140.8504 0002815 263.4862  96.5977 14.98341296 58943,6950.158,96.106,573.979,570.066,0.0
